{"type": "FeatureCollection", "features": [{"type": "Feature", "properties": {"norad_id": 28890, "name": "BEIJING 1", "group": "dmc", "lat": 81.47786154553779, "lon": 46.35257525176981, "alt_km": 665.200480920992, "timestamp": "2025-12-20T18:51:31.384416+00:00", "meta": {"OBJECT_NAME": "BEIJING 1", "OBJECT_ID": "2005-043A", "EPOCH": "2025-12-20T15:10:35.992128", "MEAN_MOTION": 14.63373684, "ECCENTRICITY": 0.00156959, "INCLINATION": 98.2657, "RA_OF_ASC_NODE": 122.1582, "ARG_OF_PERICENTER": 118.0004, "MEAN_ANOMALY": 242.2788, "EPHEMERIS_TYPE": 0, "CLASSIFICATION_TYPE": "U", "NORAD_CAT_ID": 28890, "ELEMENT_SET_NO": 999, "REV_AT_EPOCH": 7453, "BSTAR": 0.0001065088, "MEAN_MOTION_DOT": 5.02e-06, "MEAN_MOTION_DDOT": 0}, "tle": {"line1": "1 28890U 05043A   25354.63236102  .00000502  00000+0  10651-3 0  9993", "line2": "2 28890  98.2657 122.1582 0015695 118.0004 242.2788 14.63373684 74534"}}, "geometry": {"type": "Point", "coordinates": [46.35257525176981, 81.47786154553779]}}, {"type": "Feature", "properties": {"norad_id": 33320, "name": "HUANJING 1A (HJ-1A)", "group": "dmc", "lat": -25.428948728755767, "lon": -13.586225621413378, "alt_km": 612.9048348059632, "timestamp": "2025-12-20T18:51:31.384441+00:00", "meta": {"OBJECT_NAME": "HUANJING 1A (HJ-1A)", "OBJECT_ID": "2008-041A", "EPOCH": "2025-12-20T14:07:01.750944", "MEAN_MOTION": 14.83416319, "ECCENTRICITY": 0.00195958, "INCLINATION": 97.6535, "RA_OF_ASC_NODE": 342.5588, "ARG_OF_PERICENTER": 9.4964, "MEAN_ANOMALY": 350.6617, "EPHEMERIS_TYPE": 0, "CLASSIFICATION_TYPE": "U", "NORAD_CAT_ID": 33320, "ELEMENT_SET_NO": 999, "REV_AT_EPOCH": 93192, "BSTAR": 0.00013595282, "MEAN_MOTION_DOT": 1.068e-05, "MEAN_MOTION_DDOT": 0}, "tle": {"line1": "1 33320U 08041A   25354.58821471  .00001068  00000+0  13595-3 0  9999", "line2": "2 33320  97.6535 342.5588 0019595   9.4964 350.6617 14.83416319931926"}}, "geometry": {"type": "Point", "coordinates": [-13.586225621413378, -25.428948728755767]}}, {"type": "Feature", "properties": {"norad_id": 33321, "name": "HUANJING 1B (HJ-1B)", "group": "dmc", "lat": 0.5111914354151206, "lon": 166.49277528605253, "alt_km": 640.032219185101, "timestamp": "2025-12-20T18:51:31.384456+00:00", "meta": {"OBJECT_NAME": "HUANJING 1B (HJ-1B)", "OBJECT_ID": "2008-041B", "EPOCH": "2025-12-20T14:48:59.033952", "MEAN_MOTION": 14.82841667, "ECCENTRICITY": 0.00380245, "INCLINATION": 97.6395, "RA_OF_ASC_NODE": 346.2632, "ARG_OF_PERICENTER": 50.889, "MEAN_ANOMALY": 309.5695, "EPHEMERIS_TYPE": 0, "CLASSIFICATION_TYPE": "U", "NORAD_CAT_ID": 33321, "ELEMENT_SET_NO": 999, "REV_AT_EPOCH": 93194, "BSTAR": 0.00016386076, "MEAN_MOTION_DOT": 1.291e-05, "MEAN_MOTION_DDOT": 0}, "tle": {"line1": "1 33321U 08041B   25354.61734993  .00001291  00000+0  16386-3 0  9995", "line2": "2 33321  97.6395 346.2632 0038024  50.8890 309.5695 14.82841667931946"}}, "geometry": {"type": "Point", "coordinates": [166.49277528605253, 0.5111914354151206]}}, {"type": "Feature", "properties": {"norad_id": 33446, "name": "YAOGAN-4", "group": "dmc", "lat": 81.50390042681991, "lon": -143.91438448601735, "alt_km": 621.4434988976964, "timestamp": "2025-12-20T18:51:31.384469+00:00", "meta": {"OBJECT_NAME": "YAOGAN-4", "OBJECT_ID": "2008-061A", "EPOCH": "2025-12-20T07:07:49.061568", "MEAN_MOTION": 14.82702731, "ECCENTRICITY": 0.00131175, "INCLINATION": 97.9192, "RA_OF_ASC_NODE": 284.3224, "ARG_OF_PERICENTER": 296.7402, "MEAN_ANOMALY": 63.2469, "EPHEMERIS_TYPE": 0, "CLASSIFICATION_TYPE": "U", "NORAD_CAT_ID": 33446, "ELEMENT_SET_NO": 999, "REV_AT_EPOCH": 91915, "BSTAR": 0.000123707, "MEAN_MOTION_DOT": 9.46e-06, "MEAN_MOTION_DDOT": 0}, "tle": {"line1": "1 33446U 08061A   25354.29709562  .00000946  00000+0  12371-3 0  9999", "line2": "2 33446  97.9192 284.3224 0013117 296.7402  63.2469 14.82702731919157"}}, "geometry": {"type": "Point", "coordinates": [-143.91438448601735, 81.50390042681991]}}, {"type": "Feature", "properties": {"norad_id": 35681, "name": "DEIMOS-1", "group": "dmc", "lat": -7.285912297545436, "lon": 156.00709964600736, "alt_km": 648.6644797073332, "timestamp": "2025-12-20T18:51:31.384481+00:00", "meta": {"OBJECT_NAME": "DEIMOS-1", "OBJECT_ID": "2009-041A", "EPOCH": "2025-12-20T15:38:08.391264", "MEAN_MOTION": 14.74964093, "ECCENTRICITY": 0.00026015, "INCLINATION": 97.7143, "RA_OF_ASC_NODE": 154.8861, "ARG_OF_PERICENTER": 66.718, "MEAN_ANOMALY": 293.4303, "EPHEMERIS_TYPE": 0, "CLASSIFICATION_TYPE": "U", "NORAD_CAT_ID": 35681, "ELEMENT_SET_NO": 999, "REV_AT_EPOCH": 88056, "BSTAR": 8.6734553e-05, "MEAN_MOTION_DOT": 5.36e-06, "MEAN_MOTION_DDOT": 0}, "tle": {"line1": "1 35681U 09041A   25354.65148601  .00000536  00000+0  86735-4 0  9993", "line2": "2 35681  97.7143 154.8861 0002601  66.7180 293.4303 14.74964093880564"}}, "geometry": {"type": "Point", "coordinates": [156.00709964600736, -7.285912297545436]}}, {"type": "Feature", "properties": {"norad_id": 35683, "name": "UK-DMC 2", "group": "dmc", "lat": 26.9952691555201, "lon": 125.42806707115372, "alt_km": 641.6741146071499, "timestamp": "2025-12-20T18:51:31.384492+00:00", "meta": {"OBJECT_NAME": "UK-DMC 2", "OBJECT_ID": "2009-041C", "EPOCH": "2025-12-20T15:28:50.568672", "MEAN_MOTION": 14.75637436, "ECCENTRICITY": 0.00015378, "INCLINATION": 97.8563, "RA_OF_ASC_NODE": 129.3248, "ARG_OF_PERICENTER": 94.3731, "MEAN_ANOMALY": 265.7655, "EPHEMERIS_TYPE": 0, "CLASSIFICATION_TYPE": "U", "NORAD_CAT_ID": 35683, "ELEMENT_SET_NO": 999, "REV_AT_EPOCH": 88023, "BSTAR": 0.00010204633, "MEAN_MOTION_DOT": 6.48e-06, "MEAN_MOTION_DDOT": 0}, "tle": {"line1": "1 35683U 09041C   25354.64502973  .00000648  00000+0  10205-3 0  9992", "line2": "2 35683  97.8563 129.3248 0001537  94.3731 265.7655 14.75637436880230"}}, "geometry": {"type": "Point", "coordinates": [125.42806707115372, 26.9952691555201]}}, {"type": "Feature", "properties": {"norad_id": 40715, "name": "DMC3-FM1", "group": "dmc", "lat": 0.09208066364280483, "lon": -138.32802294324057, "alt_km": 614.292587945557, "timestamp": "2025-12-20T18:51:31.384502+00:00", "meta": {"OBJECT_NAME": "DMC3-FM1", "OBJECT_ID": "2015-032A", "EPOCH": "2025-12-20T15:37:29.894016", "MEAN_MOTION": 14.85451555, "ECCENTRICITY": 0.00042017, "INCLINATION": 97.6689, "RA_OF_ASC_NODE": 221.5546, "ARG_OF_PERICENTER": 288.4688, "MEAN_ANOMALY": 71.6071, "EPHEMERIS_TYPE": 0, "CLASSIFICATION_TYPE": "U", "NORAD_CAT_ID": 40715, "ELEMENT_SET_NO": 999, "REV_AT_EPOCH": 56340, "BSTAR": 5.7959107e-05, "MEAN_MOTION_DOT": 4.48e-06, "MEAN_MOTION_DDOT": 0}, "tle": {"line1": "1 40715U 15032A   25354.65104044  .00000448  00000+0  57959-4 0  9995", "line2": "2 40715  97.6689 221.5546 0004201 288.4688  71.6071 14.85451555563403"}}, "geometry": {"type": "Point", "coordinates": [-138.32802294324057, 0.09208066364280483]}}, {"type": "Feature", "properties": {"norad_id": 40716, "name": "DMC3-FM2", "group": "dmc", "lat": -59.144120574330664, "lon": 30.089444899578304, "alt_km": 617.4035728268691, "timestamp": "2025-12-20T18:51:31.384512+00:00", "meta": {"OBJECT_NAME": "DMC3-FM2", "OBJECT_ID": "2015-032B", "EPOCH": "2025-12-20T14:32:52.604160", "MEAN_MOTION": 14.85456206, "ECCENTRICITY": 0.00047076, "INCLINATION": 97.6749, "RA_OF_ASC_NODE": 222.9611, "ARG_OF_PERICENTER": 295.4696, "MEAN_ANOMALY": 64.6033, "EPHEMERIS_TYPE": 0, "CLASSIFICATION_TYPE": "U", "NORAD_CAT_ID": 40716, "ELEMENT_SET_NO": 999, "REV_AT_EPOCH": 56339, "BSTAR": 0.00012975706, "MEAN_MOTION_DOT": 1.067e-05, "MEAN_MOTION_DDOT": 0}, "tle": {"line1": "1 40716U 15032B   25354.60616440  .00001067  00000+0  12976-3 0  9996", "line2": "2 40716  97.6749 222.9611 0004707 295.4696  64.6033 14.85456206563393"}}, "geometry": {"type": "Point", "coordinates": [30.089444899578304, -59.144120574330664]}}, {"type": "Feature", "properties": {"norad_id": 40717, "name": "DMC3-FM3", "group": "dmc", "lat": 55.111131823184664, "lon": 55.931295832260645, "alt_km": 609.8230462748488, "timestamp": "2025-12-20T18:51:31.384522+00:00", "meta": {"OBJECT_NAME": "DMC3-FM3", "OBJECT_ID": "2015-032C", "EPOCH": "2025-12-20T15:04:06.629664", "MEAN_MOTION": 14.8544095, "ECCENTRICITY": 0.00040899, "INCLINATION": 97.6805, "RA_OF_ASC_NODE": 224.6203, "ARG_OF_PERICENTER": 297.7468, "MEAN_ANOMALY": 62.3333, "EPHEMERIS_TYPE": 0, "CLASSIFICATION_TYPE": "U", "NORAD_CAT_ID": 40717, "ELEMENT_SET_NO": 999, "REV_AT_EPOCH": 56340, "BSTAR": 3.1571173e-05, "MEAN_MOTION_DOT": 2.21e-06, "MEAN_MOTION_DDOT": 0}, "tle": {"line1": "1 40717U 15032C   25354.62785451  .00000221  00000+0  31571-4 0  9992", "line2": "2 40717  97.6805 224.6203 0004089 297.7468  62.3333 14.85440950563407"}}, "geometry": {"type": "Point", "coordinates": [55.931295832260645, 55.111131823184664]}}]}